SL-12 R/B(2)            
1 15772U 85042D   26158.51514030  .00000102  00000+0  67226-4 0  9991
2 15772  71.1085 257.9503 0035775 342.5030  28.4017 14.22004235127163
SL-14 R/B               
1 15945U 85069B   26158.13950839  .00000480  00000+0  51458-4 0  9990
2 15945  82.5264 300.8161 0017282 254.8771 105.0534 14.86507691186129
SL-16 R/B               
1 16182U 85097B   26158.19186970  .00000014  00000+0  31127-4 0  9992
2 16182  71.0037 312.1213 0005680 131.3032  41.0011 14.16612393 99903
SL-14 R/B               
1 16496U 86006B   26158.29400557  .00000632  00000+0  64345-4 0  9996
2 16496  82.5261 175.4234 0075701 336.7309  23.0486 14.86935800162522
COSMOS 1743             
1 16719U 86034A   26158.24553701  .00049014  00000+0  47723-3 0  9997
2 16719  82.5281 339.2962 0003506 318.9063  41.1933 15.66050384194238
SL-14 R/B               
1 16792U 86046B   26157.64606638  .00000384  00000+0  41353-4 0  9993
2 16792  82.4818 356.1373 0021689 295.7160  64.1817 14.85664022139617
SL-14 R/B               
1 16882U 86055B   26158.18774600  .00000495  00000+0  54011-4 0  9996
2 16882  82.5212  42.5342 0019881  39.7370  76.2307 14.85716504132656
AJISAI (EGS)            
1 16908U 86061A   26158.50979009 -.00000089  00000+0  57843-4 0  9994
2 16908  50.0070 177.1537 0011274 156.0379 323.3537 12.44516774479181
SL-14 R/B               
1 17567U 87024B   26157.84915839  .00000384  00000+0  40903-4 0  9999
2 17567  82.5284   8.9686 0017418 329.8134  30.2077 14.86206301101377
COSMOS 1833             
1 17589U 87027A   26158.26849741  .00000304  00000+0  18782-3 0  9992
2 17589  70.9153 137.7173 0022562  71.6465 288.7107 14.13042547 22976
SL-16 R/B               
1 17590U 87027B   26158.47551152  .00000208  00000+0  12691-3 0  9999
2 17590  71.0031  87.2932 0006029 324.1070  35.9648 14.17171466 28060
SL-14 R/B               
1 17912U 87038B   26158.42881282  .00000401  00000+0  43655-4 0  9994
2 17912  82.5015 212.2637 0018100 224.6908 135.2851 14.85439721 92557
COSMOS 1844             
1 17973U 87041A   26158.41932619 -.00000117  00000+0 -35264-4 0  9998
2 17973  70.8986 204.9106 0033263 249.6860 110.0686 14.14569997 16274
SL-14 R/B               
1 18153U 87055B   26158.25537664  .00000523  00000+0  57202-4 0  9992
2 18153  82.4996 264.5911 0022143  78.4979 281.8722 14.85704277 83233
COSMOS 1867             
1 18187U 87060A   26158.42255419 -.00000023  00000+0  28917-4 0  9996
2 18187  65.0116  55.4052 0016307 282.0596  77.8661 14.31514762 32785
SL-14 R/B               
1 18749U 88001B   26158.25669376  .00000528  00000+0  58118-4 0  9993
2 18749  82.5124 111.1156 0016726 305.3798  54.5854 14.85602525 55320
COSMOS 1933             
1 18958U 88020A   26158.28601530  .00004441  00000+0  21298-3 0  9993
2 18958  82.5122 162.2400 0002532 228.3729 131.7288 15.18651243 63828
SL-3 R/B                
1 19046U 88032B   26158.24203083  .00004857  00000+0  22220-3 0  9999
2 19046  97.5254 141.2935 0023677 282.4071  77.4515 15.20764959 65714
SL-16 R/B               
1 19120U 88039B   26158.25615791  .00000147  00000+0  92282-4 0  9997
2 19120  71.0149 239.1571 0022783 207.7723 152.2187 14.19628851971092
COSMOS 1953             
1 19210U 88050A   26158.53495667  .00007617  00000+0  26202-3 0  9996
2 19210  82.5075  67.7664 0011289 156.3859 203.7902 15.29841730 51511
SL-8 R/B                
1 19257U 88053B   26157.70663177  .00000301  00000+0  10581-3 0  9997
2 19257  74.0477 308.3768 0019260 107.5146 263.7375 14.38963737989406
COSMOS 1975             
1 19573U 88093A   26158.14306911  .00007404  00000+0  25984-3 0  9995
2 19573  82.5200  27.8043 0010380 207.4687 152.6006 15.29196460 33070
SL-14 R/B               
1 19574U 88093B   26158.19130763  .00000534  00000+0  58376-4 0  9990
2 19574  82.5305 318.0302 0022167 101.3095  71.2644 14.85734392 14303
SL-16 R/B               
1 19650U 88102B   26158.18707638 -.00000014  00000+0  17258-4 0  9994
2 19650  71.0005 323.1810 0016114 239.1466 120.8073 14.16166729939564
INTERCOSMOS 24          
1 20261U 89080A   26158.40620167  .00000993  00000+0  28299-3 0  9997
2 20261  82.6074  46.0083 1188338  84.5803 288.9394 12.59646524678098
SL-14 R/B               
1 20262U 89080C   26158.16277828  .00000474  00000+0  14141-3 0  9998
2 20262  82.5918 115.7472 1229331 340.3373  15.3974 12.50563895671331
DELTA 1 R/B             
1 20323U 89089B   26158.28713984  .00000384  00000+0  10365-3 0  9990
2 20323  97.0640 351.4295 0068395 198.2662 161.6079 14.50724866908721
ARIANE 40 R/B           
1 20443U 90005H   26158.38580351  .00000294  00000+0  10683-3 0  9997
2 20443  98.2963 216.3062 0008894 298.2528  61.7762 14.39922520905715
DELTA 2 R/B(1)          
1 20453U 90008B   26157.11184448  .00100860  00000+0  79153-3 0  9995
2 20453  35.5996 309.6616 0068397   9.6562 350.5477 15.67094261939963
COSMOS 2058             
1 20465U 90010A   26157.54661974  .00003825  00000+0  22126-3 0  9993
2 20465  82.4665 319.8499 0010456  36.0110 324.1822 15.11943112955661
SL-14 R/B               
1 20466U 90010B   26158.32117029  .00000398  00000+0  45240-4 0  9993
2 20466  82.5018 183.2105 0019988   9.1267 351.0307 14.83640227941778
