OBJECT_NAME,OBJECT_ID,EPOCH,MEAN_MOTION,ECCENTRICITY,INCLINATION,RA_OF_ASC_NODE,ARG_OF_PERICENTER,MEAN_ANOMALY,EPHEMERIS_TYPE,CLASSIFICATION_TYPE,NORAD_CAT_ID,ELEMENT_SET_NO,REV_AT_EPOCH,BSTAR,MEAN_MOTION_DOT,MEAN_MOTION_DDOT
SL-12 R/B(2),1985-042D,2026-06-07T12:21:48.121920,14.22004235,.0035775,71.1085,257.9503,342.5030,28.4017,0,U,15772,999,12716,.67226E-4,.102E-5,0
SL-14 R/B,1985-069B,2026-06-07T03:20:53.524896,14.86507691,.0017282,82.5264,300.8161,254.8771,105.0534,0,U,15945,999,18612,.51458E-4,.48E-5,0
SL-16 R/B,1985-097B,2026-06-07T04:36:17.542080,14.16612393,.000568,71.0037,312.1213,131.3032,41.0011,0,U,16182,999,9990,.31127E-4,.14E-6,0
SL-14 R/B,1986-006B,2026-06-07T07:03:22.081248,14.86935800,.0075701,82.5261,175.4234,336.7309,23.0486,0,U,16496,999,16252,.64345E-4,.632E-5,0
COSMOS 1743,1986-034A,2026-06-07T05:53:34.397664,15.66050384,.0003506,82.5281,339.2962,318.9063,41.1933,0,U,16719,999,19423,.47723E-3,.49014E-3,0
SL-14 R/B,1986-046B,2026-06-06T15:30:20.135232,14.85664022,.0021689,82.4818,356.1373,295.7160,64.1817,0,U,16792,999,13961,.41353E-4,.384E-5,0
SL-14 R/B,1986-055B,2026-06-07T04:30:21.254400,14.85716504,.0019881,82.5212,42.5342,39.7370,76.2307,0,U,16882,999,13265,.54011E-4,.495E-5,0
AJISAI (EGS),1986-061A,2026-06-07T12:14:05.863776,12.44516774,.0011274,50.0070,177.1537,156.0379,323.3537,0,U,16908,999,47918,.57843E-4,-.89E-6,0
SL-14 R/B,1987-024B,2026-06-06T20:22:47.284896,14.86206301,.00174182,82.5284,8.9686,329.8134,30.2077,0,U,17567,999,10137,.40903152E-4,.384E-5,0
COSMOS 1833,1987-027A,2026-06-07T06:26:38.176224,14.13042547,.0022562,70.9153,137.7173,71.6465,288.7107,0,U,17589,999,2297,.18782E-3,.304E-5,0
SL-16 R/B,1987-027B,2026-06-07T11:24:44.195328,14.17171466,.0006029,71.0031,87.2932,324.1070,35.9648,0,U,17590,999,2806,.12691E-3,.208E-5,0
SL-14 R/B,1987-038B,2026-06-07T10:17:29.427648,14.85439721,.00181,82.5015,212.2637,224.6908,135.2851,0,U,17912,999,9255,.43655E-4,.401E-5,0
COSMOS 1844,1987-041A,2026-06-07T10:03:49.782816,14.14569997,.0033263,70.8986,204.9106,249.6860,110.0686,0,U,17973,999,1627,-.35264E-4,-.117E-5,0
SL-14 R/B,1987-055B,2026-06-07T06:07:44.541696,14.85704277,.0022143,82.4996,264.5911,78.4979,281.8722,0,U,18153,999,8323,.57202E-4,.523E-5,0
COSMOS 1867,1987-060A,2026-06-07T10:08:28.682016,14.31514762,.0016307,65.0116,55.4052,282.0596,77.8661,0,U,18187,999,3278,.28917E-4,-.23E-6,0
SL-14 R/B,1988-001B,2026-06-07T06:09:38.340864,14.85602525,.0016726,82.5124,111.1156,305.3798,54.5854,0,U,18749,999,5532,.58118E-4,.528E-5,0
COSMOS 1933,1988-020A,2026-06-07T06:51:51.721920,15.18651243,.0002532,82.5122,162.2400,228.3729,131.7288,0,U,18958,999,6382,.21298E-3,.4441E-4,0
SL-3 R/B,1988-032B,2026-06-07T05:48:31.463712,15.20764959,.0023677,97.5254,141.2935,282.4071,77.4515,0,U,19046,999,6571,.2222E-3,.4857E-4,0
SL-16 R/B,1988-039B,2026-06-07T06:08:52.043424,14.19628851,.0022783,71.0149,239.1571,207.7723,152.2187,0,U,19120,999,97109,.92282E-4,.147E-5,0
COSMOS 1953,1988-050A,2026-06-07T12:50:20.256288,15.29841730,.0011289,82.5075,67.7664,156.3859,203.7902,0,U,19210,999,5151,.26202E-3,.7617E-4,0
SL-8 R/B,1988-053B,2026-06-06T16:57:32.984928,14.38963737,.00192607,74.0477,308.3768,107.5146,263.7375,0,U,19257,999,98940,.10581363E-3,.301E-5,0
COSMOS 1975,1988-093A,2026-06-07T03:26:01.171104,15.29196460,.001038,82.5200,27.8043,207.4687,152.6006,0,U,19573,999,3307,.25984E-3,.7404E-4,0
SL-14 R/B,1988-093B,2026-06-07T04:35:28.979232,14.85734392,.0022167,82.5305,318.0302,101.3095,71.2644,0,U,19574,999,1430,.58376E-4,.534E-5,0
SL-16 R/B,1988-102B,2026-06-07T04:29:23.399232,14.16166729,.0016114,71.0005,323.1810,239.1466,120.8073,0,U,19650,999,93956,.17258E-4,-.14E-6,0
INTERCOSMOS 24,1989-080A,2026-06-07T09:44:55.824288,12.59646524,.1188338,82.6074,46.0083,84.5803,288.9394,0,U,20261,999,67809,.28299E-3,.993E-5,0
SL-14 R/B,1989-080C,2026-06-07T03:54:24.043392,12.50563895,.12293313,82.5918,115.7472,340.3373,15.3974,0,U,20262,999,67133,.14140934E-3,.474E-5,0
DELTA 1 R/B,1989-089B,2026-06-07T06:53:28.882176,14.50724866,.0068395,97.0640,351.4295,198.2662,161.6079,0,U,20323,999,90872,.10365E-3,.384E-5,0
ARIANE 40 R/B,1990-005H,2026-06-07T09:15:33.423264,14.39922520,.0008894,98.2963,216.3062,298.2528,61.7762,0,U,20443,999,90571,.10683E-3,.294E-5,0
DELTA 2 R/B(1),1990-008B,2026-06-06T02:41:03.363072,15.67094261,.0068397,35.5996,309.6616,9.6562,350.5477,0,U,20453,999,93996,.79153E-3,.10086E-2,0
COSMOS 2058,1990-010A,2026-06-06T13:07:07.945536,15.11943112,.00104568,82.4665,319.8499,36.0110,324.1822,0,U,20465,999,95566,.22125667E-3,.3825E-4,0
SL-14 R/B,1990-010B,2026-06-07T07:42:29.113056,14.83640227,.0019988,82.5018,183.2105,9.1267,351.0307,0,U,20466,999,94177,.4524E-4,.398E-5,0
